COSMOS 1892             
1 18421U 87088A   25316.32806823  .00524952  11663-3  11117-2 0  9996
2 18421  82.4669  78.0531 0006153 285.2306  74.8290 15.98731590 86448
SL-14 R/B               
1 18749U 88001B   25316.26286651  .00001198  00000+0  13624-3 0  9996
2 18749  82.5106 305.8184 0016466 266.5582  93.3751 14.85375323 24598
COSMOS 1933             
1 18958U 88020A   25316.21136443  .00009441  00000+0  47956-3 0  9991
2 18958  82.5160   7.0339 0003191 234.0929 126.0008 15.16760548 32410
SL-3 R/B                
1 19046U 88032B   25316.22000039  .00013724  00000+0  66687-3 0  9996
2 19046  97.5059 295.1668 0024995 284.7510  75.0954 15.18279660 34271
SL-16 R/B               
1 19120U 88039B   25316.30656170  .00000102  00000+0  70793-4 0  9998
2 19120  71.0143 316.7481 0021157 166.3308 193.8394 14.19589384941726
COSMOS 1953             
1 19210U 88050A   25316.29214937  .00012375  00000+0  47270-3 0  9998
2 19210  82.5074 276.1225 0012155 166.7330 193.4230 15.26436866 19869
SL-8 R/B                
1 19257U 88053B   25316.28579969  .00000677  00000+0  22797-3 0  9999
2 19257  74.0472 328.8498 0020074 182.6043 188.6694 14.38832931959714
COSMOS 1975             
1 19573U 88093A   25316.22668425  .00021200  00000+0  82689-3 0  9995
2 19573  82.5211 235.3552 0009906 217.5357 142.5191 15.25767930  1486
SL-14 R/B               
1 19574U 88093B   25316.07060898  .00000687  00000+0  76482-4 0  9990
2 19574  82.5297 152.4489 0022225  68.8463  49.4701 14.85500858983573
SL-16 R/B               
1 19650U 88102B   25316.29691404 -.00000093  00000+0 -23035-4 0  9992
2 19650  71.0011  38.4963 0014797 199.0763 160.9808 14.16130257910270
INTERCOSMOS 24          
1 20261U 89080A   25316.15487867  .00000909  00000+0  26696-3 0  9998
2 20261  82.6073 180.8403 1188079 205.4708 148.2986 12.59368592652004
SL-14 R/B               
1 20262U 89080C   25316.26049191  .00000605  00000+0  17303-3 0  9993
2 20262  82.5932 248.5795 1231282  93.2176 281.0176 12.50380088645476
