CCSDS_OMM_VERS = 2.0
CREATION_DATE  = 
ORIGINATOR     = 

OBJECT_NAME    = COSMOS 1892
OBJECT_ID      = 1987-088A
CENTER_NAME    = EARTH
REF_FRAME      = TEME
TIME_SYSTEM    = UTC
MEAN_ELEMENT_THEORY = SGP/SGP4

EPOCH          = 2025-11-12T07:52:25.095072
MEAN_MOTION    = 15.98731590
ECCENTRICITY   = .00061536
INCLINATION    = 82.4669
RA_OF_ASC_NODE = 78.0531
ARG_OF_PERICENTER = 285.2306
MEAN_ANOMALY   = 74.8290

EPHEMERIS_TYPE = 0
CLASSIFICATION_TYPE = U
NORAD_CAT_ID   = 18421
ELEMENT_SET_NO = 999
REV_AT_EPOCH   = 8644
BSTAR          = .11116591E-2
MEAN_MOTION_DOT = .524952E-2
MEAN_MOTION_DDOT = .11662577E-3

CCSDS_OMM_VERS = 2.0
CREATION_DATE  = 
ORIGINATOR     = 

OBJECT_NAME    = SL-14 R/B
OBJECT_ID      = 1988-001B
CENTER_NAME    = EARTH
REF_FRAME      = TEME
TIME_SYSTEM    = UTC
MEAN_ELEMENT_THEORY = SGP/SGP4

EPOCH          = 2025-11-12T06:18:31.666464
MEAN_MOTION    = 14.85375323
ECCENTRICITY   = .0016466
INCLINATION    = 82.5106
RA_OF_ASC_NODE = 305.8184
ARG_OF_PERICENTER = 266.5582
MEAN_ANOMALY   = 93.3751

EPHEMERIS_TYPE = 0
CLASSIFICATION_TYPE = U
NORAD_CAT_ID   = 18749
ELEMENT_SET_NO = 999
REV_AT_EPOCH   = 2459
BSTAR          = .136243E-3
MEAN_MOTION_DOT = .1198E-4
MEAN_MOTION_DDOT = 0

CCSDS_OMM_VERS = 2.0
CREATION_DATE  = 
ORIGINATOR     = 

OBJECT_NAME    = COSMOS 1933
OBJECT_ID      = 1988-020A
CENTER_NAME    = EARTH
REF_FRAME      = TEME
TIME_SYSTEM    = UTC
MEAN_ELEMENT_THEORY = SGP/SGP4

EPOCH          = 2025-11-12T05:04:21.886752
MEAN_MOTION    = 15.16760548
ECCENTRICITY   = .00031919
INCLINATION    = 82.5160
RA_OF_ASC_NODE = 7.0339
ARG_OF_PERICENTER = 234.0929
MEAN_ANOMALY   = 126.0008

EPHEMERIS_TYPE = 0
CLASSIFICATION_TYPE = U
NORAD_CAT_ID   = 18958
ELEMENT_SET_NO = 999
REV_AT_EPOCH   = 3241
BSTAR          = .47955905E-3
MEAN_MOTION_DOT = .9441E-4
MEAN_MOTION_DDOT = 0

CCSDS_OMM_VERS = 2.0
CREATION_DATE  = 
ORIGINATOR     = 

OBJECT_NAME    = SL-3 R/B
OBJECT_ID      = 1988-032B
CENTER_NAME    = EARTH
REF_FRAME      = TEME
TIME_SYSTEM    = UTC
MEAN_ELEMENT_THEORY = SGP/SGP4

EPOCH          = 2025-11-12T05:16:48.033696
MEAN_MOTION    = 15.18279660
ECCENTRICITY   = .00249953
INCLINATION    = 97.5059
RA_OF_ASC_NODE = 295.1668
ARG_OF_PERICENTER = 284.7510
MEAN_ANOMALY   = 75.0954

EPHEMERIS_TYPE = 0
CLASSIFICATION_TYPE = U
NORAD_CAT_ID   = 19046
ELEMENT_SET_NO = 999
REV_AT_EPOCH   = 3427
BSTAR          = .66686987E-3
MEAN_MOTION_DOT = .13724E-3
MEAN_MOTION_DDOT = 0

CCSDS_OMM_VERS = 2.0
CREATION_DATE  = 
ORIGINATOR     = 

OBJECT_NAME    = SL-16 R/B
OBJECT_ID      = 1988-039B
CENTER_NAME    = EARTH
REF_FRAME      = TEME
TIME_SYSTEM    = UTC
MEAN_ELEMENT_THEORY = SGP/SGP4

EPOCH          = 2025-11-12T07:21:26.930880
MEAN_MOTION    = 14.19589384
ECCENTRICITY   = .00211572
INCLINATION    = 71.0143
RA_OF_ASC_NODE = 316.7481
ARG_OF_PERICENTER = 166.3308
MEAN_ANOMALY   = 193.8394

EPHEMERIS_TYPE = 0
CLASSIFICATION_TYPE = U
NORAD_CAT_ID   = 19120
ELEMENT_SET_NO = 999
REV_AT_EPOCH   = 94172
BSTAR          = .70793143E-4
MEAN_MOTION_DOT = .102E-5
MEAN_MOTION_DDOT = 0

CCSDS_OMM_VERS = 2.0
CREATION_DATE  = 
ORIGINATOR     = 

OBJECT_NAME    = COSMOS 1953
OBJECT_ID      = 1988-050A
CENTER_NAME    = EARTH
REF_FRAME      = TEME
TIME_SYSTEM    = UTC
MEAN_ELEMENT_THEORY = SGP/SGP4

EPOCH          = 2025-11-12T07:00:41.705568
MEAN_MOTION    = 15.26436866
ECCENTRICITY   = .00121555
INCLINATION    = 82.5074
RA_OF_ASC_NODE = 276.1225
ARG_OF_PERICENTER = 166.7330
MEAN_ANOMALY   = 193.4230

EPHEMERIS_TYPE = 0
CLASSIFICATION_TYPE = U
NORAD_CAT_ID   = 19210
ELEMENT_SET_NO = 999
REV_AT_EPOCH   = 1986
BSTAR          = .47269865E-3
MEAN_MOTION_DOT = .12375E-3
MEAN_MOTION_DDOT = 0

CCSDS_OMM_VERS = 2.0
CREATION_DATE  = 
ORIGINATOR     = 

OBJECT_NAME    = SL-8 R/B
OBJECT_ID      = 1988-053B
CENTER_NAME    = EARTH
REF_FRAME      = TEME
TIME_SYSTEM    = UTC
MEAN_ELEMENT_THEORY = SGP/SGP4

EPOCH          = 2025-11-12T06:51:33.093216
MEAN_MOTION    = 14.38832931
ECCENTRICITY   = .00200749
INCLINATION    = 74.0472
RA_OF_ASC_NODE = 328.8498
ARG_OF_PERICENTER = 182.6043
MEAN_ANOMALY   = 188.6694

EPHEMERIS_TYPE = 0
CLASSIFICATION_TYPE = U
NORAD_CAT_ID   = 19257
ELEMENT_SET_NO = 999
REV_AT_EPOCH   = 95971
BSTAR          = .22797302E-3
MEAN_MOTION_DOT = .677E-5
MEAN_MOTION_DDOT = 0

CCSDS_OMM_VERS = 2.0
CREATION_DATE  = 
ORIGINATOR     = 

OBJECT_NAME    = COSMOS 1975
OBJECT_ID      = 1988-093A
CENTER_NAME    = EARTH
REF_FRAME      = TEME
TIME_SYSTEM    = UTC
MEAN_ELEMENT_THEORY = SGP/SGP4

EPOCH          = 2025-11-12T05:26:25.519200
MEAN_MOTION    = 15.25767930
ECCENTRICITY   = .00099061
INCLINATION    = 82.5211
RA_OF_ASC_NODE = 235.3552
ARG_OF_PERICENTER = 217.5357
MEAN_ANOMALY   = 142.5191

EPHEMERIS_TYPE = 0
CLASSIFICATION_TYPE = U
NORAD_CAT_ID   = 19573
ELEMENT_SET_NO = 999
REV_AT_EPOCH   = 148
BSTAR          = .82688741E-3
MEAN_MOTION_DOT = .212E-3
MEAN_MOTION_DDOT = 0

CCSDS_OMM_VERS = 2.0
CREATION_DATE  = 
ORIGINATOR     = 

OBJECT_NAME    = SL-14 R/B
OBJECT_ID      = 1988-093B
CENTER_NAME    = EARTH
REF_FRAME      = TEME
TIME_SYSTEM    = UTC
MEAN_ELEMENT_THEORY = SGP/SGP4

EPOCH          = 2025-11-12T01:41:40.615872
MEAN_MOTION    = 14.85500858
ECCENTRICITY   = .00222259
INCLINATION    = 82.5297
RA_OF_ASC_NODE = 152.4489
ARG_OF_PERICENTER = 68.8463
MEAN_ANOMALY   = 49.4701

EPHEMERIS_TYPE = 0
CLASSIFICATION_TYPE = U
NORAD_CAT_ID   = 19574
ELEMENT_SET_NO = 999
REV_AT_EPOCH   = 98357
BSTAR          = .76482491E-4
MEAN_MOTION_DOT = .687E-5
MEAN_MOTION_DDOT = 0

CCSDS_OMM_VERS = 2.0
CREATION_DATE  = 
ORIGINATOR     = 

OBJECT_NAME    = SL-16 R/B
OBJECT_ID      = 1988-102B
CENTER_NAME    = EARTH
REF_FRAME      = TEME
TIME_SYSTEM    = UTC
MEAN_ELEMENT_THEORY = SGP/SGP4

EPOCH          = 2025-11-12T07:07:33.373056
MEAN_MOTION    = 14.16130257
ECCENTRICITY   = .00147977
INCLINATION    = 71.0011
RA_OF_ASC_NODE = 38.4963
ARG_OF_PERICENTER = 199.0763
MEAN_ANOMALY   = 160.9808

EPHEMERIS_TYPE = 0
CLASSIFICATION_TYPE = U
NORAD_CAT_ID   = 19650
ELEMENT_SET_NO = 999
REV_AT_EPOCH   = 91027
BSTAR          = -.23034553E-4
MEAN_MOTION_DOT = -.93E-6
MEAN_MOTION_DDOT = 0

CCSDS_OMM_VERS = 2.0
CREATION_DATE  = 
ORIGINATOR     = 

OBJECT_NAME    = INTERCOSMOS 24
OBJECT_ID      = 1989-080A
CENTER_NAME    = EARTH
REF_FRAME      = TEME
TIME_SYSTEM    = UTC
MEAN_ELEMENT_THEORY = SGP/SGP4

EPOCH          = 2025-11-12T03:43:01.517088
MEAN_MOTION    = 12.59368592
ECCENTRICITY   = .11880791
INCLINATION    = 82.6073
RA_OF_ASC_NODE = 180.8403
ARG_OF_PERICENTER = 205.4708
MEAN_ANOMALY   = 148.2986

EPHEMERIS_TYPE = 0
CLASSIFICATION_TYPE = U
NORAD_CAT_ID   = 20261
ELEMENT_SET_NO = 999
REV_AT_EPOCH   = 65200
BSTAR          = .26695872E-3
MEAN_MOTION_DOT = .909E-5
MEAN_MOTION_DDOT = 0

CCSDS_OMM_VERS = 2.0
CREATION_DATE  = 
ORIGINATOR     = 

OBJECT_NAME    = SL-14 R/B
OBJECT_ID      = 1989-080C
CENTER_NAME    = EARTH
REF_FRAME      = TEME
TIME_SYSTEM    = UTC
MEAN_ELEMENT_THEORY = SGP/SGP4

EPOCH          = 2025-11-12T06:15:06.501024
MEAN_MOTION    = 12.50380088
ECCENTRICITY   = .12312825
INCLINATION    = 82.5932
RA_OF_ASC_NODE = 248.5795
ARG_OF_PERICENTER = 93.2176
MEAN_ANOMALY   = 281.0176

EPHEMERIS_TYPE = 0
CLASSIFICATION_TYPE = U
NORAD_CAT_ID   = 20262
ELEMENT_SET_NO = 999
REV_AT_EPOCH   = 64547
BSTAR          = .1730318E-3
MEAN_MOTION_DOT = .605E-5
MEAN_MOTION_DDOT = 0

